NORAD_CAT_ID,OBJECT_NAME,OBJECT_TYPE,EPOCH,MEAN_MOTION,ECCENTRICITY,INCLINATION,RA_OF_ASC_NODE,ARG_OF_PERICENTER,MEAN_ANOMALY,BSTAR,MEAN_MOTION_DOT,MEAN_MOTION_DDOT,TLE_LINE0,TLE_LINE1,TLE_LINE2,SEMIMAJOR_AXIS,PERIOD,APOGEE,PERIGEE,DECAYED
54773.0,STARLINK-5453,PAYLOAD,2023-08-16 09:43:36,15.08839025,0.0001015,53.2167,287.1443,92.6324,267.4784,3.6815e-05,2.98e-06,0.0,0 STARLINK-5453,1 54773U 22175R   23228.40527895  .00000298  00000-0  36815-4 0  9996,2 54773  53.2167 287.1443 0001015  92.6324 267.4784 15.08839025 36417,6917.883,95.438,540.451,539.046,0.0
54773.0,STARLINK-5453,PAYLOAD,2023-08-18 04:39:01,15.08835509,0.0001197,53.2173,279.1144,85.9486,274.1643,7.4935e-05,9.05e-06,0.0,0 STARLINK-5453,1 54773U 22175R   23230.19376544  .00000905  00000-0  74935-4 0  9998,2 54773  53.2173 279.1144 0001197  85.9486 274.1643 15.08835509 36689,6917.894,95.438,540.587,538.931,0.0
54773.0,STARLINK-5453,PAYLOAD,2023-08-19 09:15:57,15.08845845,0.0001114,53.2164,273.7612,77.2914,282.8203,7.7115e-05,9.4e-06,0.0,0 STARLINK-5453,1 54773U 22175R   23231.38607932  .00000940  00000-0  77115-4 0  9990,2 54773  53.2164 273.7612 0001114  77.2914 282.8203 15.08845845 36860,6917.863,95.437,540.498,538.957,0.0
54773.0,STARLINK-5453,PAYLOAD,2023-08-20 02:45:12,15.08838944,0.000113,53.2159,270.4906,72.8644,287.2472,9.9377e-05,1.294e-05,0.0,0 STARLINK-5453,1 54773U 22175R   23232.11472340  .00001294  00000-0  99377-4 0  9992,2 54773  53.2159 270.4906 0001130  72.8644 287.2472 15.08838944 36974,6917.884,95.438,540.53,538.967,0.0
54773.0,STARLINK-5453,PAYLOAD,2023-08-21 08:57:31,15.08842863,0.000119,53.2166,264.8408,91.1202,268.9926,5.422e-05,5.75e-06,0.0,0 STARLINK-5453,1 54773U 22175R   23233.37328109  .00000575  00000-0  54220-4 0  9993,2 54773  53.2166 264.8408 0001190  91.1202 268.9926 15.08842863 37163,6917.872,95.437,540.56,538.913,0.0
54773.0,STARLINK-5453,PAYLOAD,2023-08-22 08:48:18,15.08836438,0.0001198,53.2161,260.3805,86.4019,273.711,2.6618e-05,1.36e-06,0.0,0 STARLINK-5453,1 54773U 22175R   23234.36688650  .00000136  00000-0  26618-4 0  9996,2 54773  53.2161 260.3805 0001198  86.4019 273.7110 15.08836438 37318,6917.891,95.438,540.585,538.928,0.0
54773.0,STARLINK-5453,PAYLOAD,2023-08-24 10:05:16,15.08837619,0.0001248,53.2162,251.1613,92.8366,267.2769,7.4045e-05,8.91e-06,0.0,0 STARLINK-5453,1 54773U 22175R   23236.42032767  .00000891  00000-0  74045-4 0  9992,2 54773  53.2162 251.1613 0001248  92.8366 267.2769 15.08837619 39789,6917.888,95.438,540.616,538.889,0.0
54773.0,STARLINK-5453,PAYLOAD,2023-08-25 09:56:03,15.08843315,0.0001258,53.216,246.7004,91.1829,268.9308,5.7013e-05,6.2e-06,0.0,0 STARLINK-5453,1 54773U 22175R   23237.41392544  .00000620  00000-0  57013-4 0  9990,2 54773  53.2160 246.7004 0001258  91.1829 268.9308 15.08843315 37772,6917.87,95.437,540.606,538.865,0.0
54773.0,STARLINK-5453,PAYLOAD,2023-08-26 00:14:31,15.08837003,0.000131,53.2163,244.0237,88.641,271.4732,3.023e-05,1.93e-06,0.0,0 STARLINK-5453,1 54773U 22175R   23238.01009122  .00000193  00000-0  30230-4 0  9991,2 54773  53.2163 244.0237 0001310  88.6410 271.4732 15.08837003 37867,6917.89,95.438,540.661,538.848,0.0
54773.0,STARLINK-5453,PAYLOAD,2023-08-26 08:11:27,15.08839128,0.000132,53.2164,242.5369,87.8157,272.2986,4.3968e-05,4.12e-06,0.0,0 STARLINK-5453,1 54773U 22175R   23238.34129003  .00000412  00000-0  43968-4 0  9994,2 54773  53.2164 242.5369 0001320  87.8157 272.2986 15.08839128 40074,6917.883,95.438,540.661,538.835,0.0
54773.0,STARLINK-5453,PAYLOAD,2023-08-27 04:51:27,15.08846031,0.0001358,53.2164,238.6715,84.267,275.8477,7.308e-05,8.76e-06,0.0,0 STARLINK-5453,1 54773U 22175R   23239.20240458  .00000876  00000-0  73080-4 0  9990,2 54773  53.2164 238.6715 0001358  84.2670 275.8477 15.08846031 38046,6917.862,95.437,540.666,538.788,0.0
54773.0,STARLINK-5453,PAYLOAD,2023-08-28 09:28:24,15.08837729,0.0001276,53.2161,233.3189,88.5844,271.5294,2.9521e-05,1.82e-06,0.0,0 STARLINK-5453,1 54773U 22175R   23240.39473066  .00000182  00000-0  29521-4 0  9996,2 54773  53.2161 233.3189 0001276  88.5844 271.5294 15.08837729 38223,6917.887,95.438,540.635,538.87,0.0
54773.0,STARLINK-5453,PAYLOAD,2023-08-29 09:19:11,15.08841317,0.000135,53.2161,228.8583,94.8107,265.3039,6.2701e-05,7.1e-06,0.0,0 STARLINK-5453,1 54773U 22175R   23241.38832698  .00000710  00000-0  62701-4 0  9990,2 54773  53.2161 228.8583 0001350  94.8107 265.3039 15.08841317 40538,6917.876,95.437,540.675,538.807,0.0
54773.0,STARLINK-5453,PAYLOAD,2023-08-29 23:37:40,15.08829832,0.0001417,53.2164,226.1823,95.1242,264.9912,1.0929e-05,-1.14e-06,0.0,0 STARLINK-5453,1 54773U 22175R   23241.98449735 -.00000114  00000-0  10929-4 0  9996,2 54773  53.2164 226.1823 0001417  95.1242 264.9912 15.08829832 38469,6917.911,95.438,540.757,538.796,0.0
54773.0,STARLINK-5453,PAYLOAD,2023-08-30 07:34:36,15.08833033,0.0001437,53.2166,224.6957,95.0221,265.0935,3.4693e-05,2.64e-06,0.0,0 STARLINK-5453,1 54773U 22175R   23242.31569617  .00000264  00000-0  34693-4 0  9995,2 54773  53.2166 224.6957 0001437  95.0221 265.0935 15.08833033 40671,6917.902,95.438,540.761,538.773,0.0
54773.0,STARLINK-5453,PAYLOAD,2023-08-30 23:28:27,15.0883776,0.0001403,53.2166,221.7233,97.3046,262.8106,1.0856e-05,-1.15e-06,0.0,0 STARLINK-5453,1 54773U 22175R   23242.97809631 -.00000115  00000-0  10856-4 0  9991,2 54773  53.2166 221.7233 0001403  97.3046 262.8106 15.08837760 38616,6917.887,95.438,540.723,538.782,0.0
54773.0,STARLINK-5453,PAYLOAD,2023-08-31 21:43:51,15.08834096,9.78e-05,53.2167,217.56,105.522,254.5881,7.0282e-05,8.31e-06,0.0,0 STARLINK-5453,1 54773U 22175R   23243.90545676  .00000831  00000-0  70282-4 0  9994,2 54773  53.2167 217.5600 0000978 105.5220 254.5881 15.08834096 40913,6917.898,95.438,540.44,539.087,0.0
54773.0,STARLINK-5453,PAYLOAD,2023-09-01 07:16:10,15.08835288,0.000133,53.2165,215.7753,97.1438,262.9705,6.9725e-05,8.22e-06,0.0,0 STARLINK-5453,1 54773U 22175R   23244.30289978  .00000822  00000-0  69725-4 0  9999,2 54773  53.2165 215.7753 0001330  97.1438 262.9705 15.08835288 38818,6917.895,95.438,540.68,538.84,0.0
54773.0,STARLINK-5453,PAYLOAD,2023-09-01 15:13:06,15.08821569,0.0001506,53.2165,214.2882,98.489,261.6273,0.00030966,4.641e-05,0.0,0 STARLINK-5453,1 54773U 22175R   23244.63410367  .00004641  00000-0  30966-3 0  9990,2 54773  53.2165 214.2882 0001506  98.4890 261.6273 15.08821569 38864,6917.937,95.439,540.844,538.76,0.0
54773.0,STARLINK-5453,PAYLOAD,2023-09-01 23:10:01,15.08844486,0.0001215,53.2157,212.8009,90.5698,269.5433,7.235e-05,8.64e-06,0.0,0 STARLINK-5453,1 54773U 22175R   23244.96529428  .00000864  00000-0  72350-4 0  9992,2 54773  53.2157 212.8009 0001215  90.5698 269.5433 15.08844486 38910,6917.867,95.437,540.572,538.891,0.0
54773.0,STARLINK-5453,PAYLOAD,2023-09-02 08:42:19,15.08851806,0.0001353,53.2156,211.0164,90.2031,269.9116,0.00012251,1.663e-05,0.0,0 STARLINK-5453,1 54773U 22175R   23245.36272695  .00001663  00000-0  12251-3 0  9999,2 54773  53.2156 211.0164 0001353  90.2031 269.9116 15.08851806 38975,6917.844,95.437,540.645,538.773,0.0
54773.0,STARLINK-5453,PAYLOAD,2023-09-02 15:03:53,15.08835029,0.0002368,53.2152,209.8261,84.0968,276.0294,3.575e-05,2.81e-06,0.0,0 STARLINK-5453,1 54773U 22175R   23245.62770363  .00000281  00000-0  35750-4 0  9998,2 54773  53.2152 209.8261 0002368  84.0968 276.0294 15.08835029 39012,6917.896,95.438,541.399,538.122,0.0
54773.0,STARLINK-5453,PAYLOAD,2023-09-02 21:25:25,15.08839433,0.0001476,53.2161,208.6375,84.1999,275.9161,4.0997e-05,3.65e-06,0.0,0 STARLINK-5453,1 54773U 22175R   23245.89265861  .00000365  00000-0  40997-4 0  9991,2 54773  53.2161 208.6375 0001476  84.1999 275.9161 15.08839433 41218,6917.882,95.438,540.768,538.726,0.0
54773.0,STARLINK-5453,PAYLOAD,2023-09-03 06:57:44,15.08840862,0.0001347,53.2163,206.8533,84.7152,275.3994,4.9999e-05,5.08e-06,0.0,0 STARLINK-5453,1 54773U 22175R   23246.29009759  .00000508  00000-0  49999-4 0  9998,2 54773  53.2163 206.8533 0001347  84.7152 275.3994 15.08840862 41272,6917.878,95.438,540.675,538.811,0.0
54773.0,STARLINK-5453,PAYLOAD,2023-09-04 06:48:31,15.08841647,0.0001449,53.2159,202.3915,99.4229,260.6927,-2.9362e-05,-7.55e-06,0.0,0 STARLINK-5453,1 54773U 22175R   23247.28369931 -.00000755  00000-0 -29362-4 0  9997,2 54773  53.2159 202.3915 0001449  99.4229 260.6927 15.08841647 39264,6917.875,95.437,540.743,538.738,0.0
54773.0,STARLINK-5453,PAYLOAD,2023-09-05 06:39:18,15.08841191,0.0001514,53.2162,197.931,96.754,263.3624,8.0672e-05,9.96e-06,0.0,0 STARLINK-5453,1 54773U 22175R   23248.27729778  .00000996  00000-0  80672-4 0  9992,2 54773  53.2162 197.9310 0001514  96.7540 263.3624 15.08841191 41570,6917.877,95.437,540.789,538.694,0.0
54773.0,STARLINK-5453,PAYLOAD,2023-09-06 06:30:05,15.08840224,0.0001455,53.2171,193.4712,95.9112,264.2046,6.5037e-05,7.47e-06,0.0,0 STARLINK-5453,1 54773U 22175R   23249.27089974  .00000747  00000-0  65037-4 0  9992,2 54773  53.2171 193.4712 0001455  95.9112 264.2046 15.08840224 39567,6917.88,95.438,540.751,538.738,0.0
54773.0,STARLINK-5453,PAYLOAD,2023-09-06 20:48:34,15.088388,0.0001404,53.2172,190.7948,98.9297,261.1854,-7.8644e-06,-4.13e-06,0.0,0 STARLINK-5453,1 54773U 22175R   23249.86706362 -.00000413  00000-0 -78644-5 0  9995,2 54773  53.2172 190.7948 0001404  98.9297 261.1854 15.08838800 41811,6917.884,95.438,540.72,538.778,0.0
54773.0,STARLINK-5453,PAYLOAD,2023-09-07 06:20:52,15.08845076,0.0001406,53.2173,189.0114,90.1482,269.9671,4.5344e-05,4.34e-06,0.0,0 STARLINK-5453,1 54773U 22175R   23250.26449785  .00000434  00000-0  45344-4 0  9995,2 54773  53.2173 189.0114 0001406  90.1482 269.9671 15.08845076 41872,6917.865,95.437,540.703,538.757,0.0
54773.0,STARLINK-5453,PAYLOAD,2023-09-08 03:00:54,15.08837788,0.0001707,53.2171,185.1467,85.1514,274.9673,2.7165e-05,1.44e-06,0.0,0 STARLINK-5453,1 54773U 22175R   23251.12562655  .00000144  00000-0  27165-4 0  9992,2 54773  53.2171 185.1467 0001707  85.1514 274.9673 15.08837788 39845,6917.887,95.438,540.933,538.571,0.0
